P/2012 O3 (McNaught),e,16.5771,336.4081,344.6994,4.581290,0.1005130,0.64550013,127.6705,02/04.0/2016,2000,g 16.5,4.0
# From MPC 90767
C/2012 Q1 (Kowalski),e,45.2308,184.4293,139.0779,25.99467,0.0074367,0.63549073,10.8541,02/04.0/2016,2000,g  4.0,4.0
# From MPC 89726
C/2012 S1 (ISON),h,11/28.5183/2013,62.1974,295.7389,345.6079,1.000263,0.012892,2000,8.5,3.2
# From MPC 82720
P/2012 S2 (La Sagra),e,8.6217,51.7909,312.3338,4.402738,0.1066891,0.69265117,135.0088,02/04.0/2016,2000,g 17.0,4.0
# From MPC 88327
C/2012 S3 (PANSTARRS),e,112.9371,121.2978,183.6867,13534,0.0000006,0.99982952,0.0000,08/30.7537/2013,2000,g 10.0,4.0
# From MPC 88327
C/2012 S4 (PANSTARRS),h,06/27.8761/2013,126.5606,173.1197,163.5777,1.000297,4.345686,2000,8.5,4.0
# From MPC 82720
P/2012 SB6 (Lemmon),e,11.0637,9.1191,12.2506,3.890000,0.1284635,0.39042186,152.7584,02/04.0/2016,2000,g 14.0,4.0
# From MPC 88694
P/2012 T1 (PANSTARRS),e,11.0576,85.7274,299.9957,3.148947,0.1763827,0.23728248,219.2157,02/04.0/2016,2000,g 15.0,4.0
# From MPC 82320
P/2012 T2 (PANSTARRS),e,12.5551,73.7472,310.9647,5.746471,0.0715488,0.16065141,72.5666,02/04.0/2016,2000,g 10.0,4.0
# From MPC 80900
P/2012 T3 (PANSTARRS),e,9.5441,114.4042,195.5000,6.164832,0.0643906,0.61473786,88.9243,02/04.0/2016,2000,g 15.0,4.0
# From MPC 84023
C/2012 T4 (McNaught),e,24.1050,99.4231,219.8602,120.0017,0.0007498,0.98371266,0.0000,10/10.4134/2012,2000,g 13.5,4.0
# From MPC 84023
C/2012 T5 (Bressi),h,02/24.0941/2013,72.1884,230.3860,318.1406,1.000367,0.322522,2000,13.0,4.0
# From MPC 82720
C/2012 T6 (Kowalski),e,33.3217,186.1281,198.0197,14.12805,0.0185601,0.87443869,23.3517,02/04.0/2016,2000,g 15.0,4.0
# From MPC 87914
P/2012 TK8 (Tenagra),e,6.2825,289.4811,126.8251,4.172188,0.1156533,0.26572063,116.2671,02/04.0/2016,2000,g 13.0,4.0
# From MPC 95208
C/2012 U1 (PANSTARRS),e,56.3412,26.9747,70.1438,5249,0.0000026,0.99899672,0.0000,07/05.3675/2014,2000,g  7.5,4.0
# From MPC 82720
P/2012 U2 (PANSTARRS),e,10.7157,185.2576,228.9196,7.190501,0.0511170,0.50111472,59.8525,02/04.0/2016,2000,g 12.5,4.0
# From MPC 84024
P/2012 US27 (Siding Spring),e,39.2888,49.1929,1.1978,5.171998,0.0837947,0.64781537,91.4441,02/04.0/2016,2000,g 13.5,4.0
# From MPC 84932
C/2012 V1 (PANSTARRS),e,157.8381,85.3637,123.2290,2568,0.0000076,0.99918695,0.0000,07/21.1958/2013,2000,g 12.0,4.0
# From MPC 88695
C/2012 V2 (LINEAR),e,67.1634,262.1754,217.3724,740.6831,0.0000489,0.99803245,0.0000,08/16.4805/2013,2000,g  9.0,4.0
# From MPC 82721
P/2012 WA34 (Lemmon-PANSTARRS),e,6.1200,94.5137,352.8572,4.785898,0.0941367,0.33688002,104.2624,02/04.0/2016,2000,g 13.5,4.0
# From MPC 97494
C/2012 X1 (LINEAR),e,44.3609,113.1237,132.0905,157.9797,0.0004964,0.98988805,0.0000,02/21.7140/2014,2000,g  4.8,3.6
# From MPC 88327
C/2012 X2 (PANSTARRS),e,34.1210,271.0370,215.7452,20.61191,0.0105324,0.76937789,10.9450,02/04.0/2016,2000,g  9.0,4.0
# From MPC 83521
C/2012 Y1 (LINEAR),e,20.9192,193.1801,269.0221,37.96598,0.0042132,0.94671614,4.6857,02/04.0/2016,2000,g 15.0,4.0
# From MPC 83521
C/2012 Y3 (McNaught),e,73.4563,122.6583,235.7093,27.96125,0.0066661,0.93656903,8.3991,02/04.0/2016,2000,g 11.0,4.0
# From MPC 97494
C/2013 A1 (Siding Spring),h,10/25.2172/2014,129.0365,300.9927,2.4424,1.000148,1.399512,2000,8.2,2.4
# From MPC 84024
P/2013 A2 (Scotti),e,3.3656,355.7999,134.6889,4.005951,0.1229265,0.45566303,134.1696,02/04.0/2016,2000,g 15.5,4.0
# From MPC 82721
P/2013 AL76 (Catalina),e,144.8624,145.9503,27.2765,6.504640,0.0594113,0.68494219,68.1659,02/04.0/2016,2000,g 16.0,4.0
# From MPC 87915
C/2013 B2 (Catalina),h,07/01.5072/2013,43.4617,331.9523,156.5110,1.001471,3.738021,2000,11.0,4.0
# From MPC 97494
C/2013 C2 (Tenagra),e,21.3377,247.5288,308.8395,16.06830,0.0153020,0.43172534,2.3944,02/04.0/2016,2000,g  4.0,4.0
# From MPC 86642
P/2013 CU129 (PANSTARRS),e,12.1527,46.2166,211.9311,2.877386,0.2019328,0.72224307,183.9884,02/04.0/2016,2000,g 18.0,2.0
# From MPC 84024
C/2013 D1 (Holvorcem),e,10.0893,294.9645,252.7038,11.28070,0.0260136,0.78183821,26.6870,02/04.0/2016,2000,g 14.0,4.0
# From MPC 90270
C/2013 E1 (McNaught),e,158.7157,134.0358,311.6281,12312,0.0000007,0.99936724,0.0000,06/14.4215/2013,2000,g  5.5,4.0
# From MPC 88327
C/2013 E2 (Iwamoto),e,21.8725,182.5067,95.6956,217.2811,0.0003077,0.99351295,0.0000,03/09.1459/2013,2000,g 11.5,4.0
# From MPC 88695
P/2013 EW90 (Tenagra),e,31.8072,160.3339,346.4271,4.111520,0.1182226,0.19620831,142.8482,02/04.0/2016,2000,g 12.0,4.0
# From MPC 84626
C/2013 F1 (Boattini),h,12/02.3382/2012,79.6085,30.0781,92.0238,1.002577,1.861503,2000,13.0,4.0
# From MPC 88695
C/2013 F2 (Catalina),e,61.7774,344.2679,123.1162,1420,0.0000184,0.99561427,0.0000,04/19.1847/2013,2000,g  7.0,4.0
# From MPC 84933
C/2013 F3 (McNaught),e,85.4691,266.0793,18.7171,573.9326,0.0000717,0.99607613,0.0000,05/24.9657/2013,2000,g 12.0,4.0
# From MPC 91612
P/2013 G1 (Kowalski),e,5.4706,221.4500,51.1965,6.876142,0.0546622,0.51266728,42.9232,02/04.0/2016,2000,g 11.0,4.0
# From MPC 84933
C/2013 G2 (McNaught),h,12/06.4357/2012,95.9710,274.0707,293.8337,1.000137,2.150335,2000,11.5,4.0
# From MPC 96864
C/2013 G3 (PANSTARRS),h,11/15.2472/2014,64.6746,208.1132,76.5079,1.000881,3.852167,2000,9.0,4.0
# From MPC 84025
P/2013 G4 (PANSTARRS),e,5.9250,339.7413,214.5609,4.434982,0.1055276,0.41093340,114.8528,02/04.0/2016,2000,g 15.0,4.0
# From MPC 84318
C/2013 G5 (Catalina),e,40.6057,144.2275,165.6692,9680,0.0000010,0.99990411,0.0000,09/01.2270/2013,2000,g 14.0,4.0
# From MPC 87478
C/2013 G6 (Lemmon),e,124.1057,44.5612,215.7260,360.1607,0.0001442,0.99430636,0.0000,07/25.0857/2013,2000,g 13.5,4.0
# From MPC 95209
C/2013 G7 (McNaught),e,105.1008,48.3786,218.2889,1526,0.0000165,0.99693324,0.0000,03/18.8201/2014,2000,g  7.5,4.0
# From MPC 95209
C/2013 G8 (PANSTARRS),e,27.6260,240.9881,80.1278,1817,0.0000127,0.99717183,0.0000,11/14.3948/2013,2000,g  8.5,4.0
# From MPC 97494
C/2013 G9 (Tenagra),h,01/15.2437/2015,146.2511,35.7357,205.0481,1.000551,5.338723,2000,7.0,4.0
# From MPC 84933
C/2013 H1 (La Sagra),e,27.0781,84.9298,136.6089,191.7629,0.0003712,0.98620270,0.0000,05/19.9240/2013,2000,g 13.0,4.0
# From MPC 94670
C/2013 H2 (Boattini),e,128.3885,262.7254,35.9905,9420,0.0000011,0.99920387,0.0000,01/23.0183/2014,2000,g  6.5,4.0
# From MPC 91613
P/2013 J2 (McNaught),e,15.4964,289.3937,37.8790,6.236691,0.0632809,0.65545886,56.6591,02/04.0/2016,2000,g 13.0,4.0
# From MPC 87916
C/2013 J3 (McNaught),e,118.2068,200.7483,320.9553,1085,0.0000276,0.99632067,0.0000,02/22.2628/2013,2000,g 10.0,4.0
# From MPC 87066
P/2013 J4 (PANSTARRS),e,5.0352,84.0011,118.7706,2.475100,0.2531133,0.23099371,359.9443,11/04.0/2013,2000,g 14.0,4.0
# From MPC 84319
C/2013 J5 (Boattini),e,136.0093,256.7457,19.1265,1402,0.0000188,0.99649983,0.0000,11/29.0348/2012,2000,g 10.0,4.0
# From MPC 84627
C/2013 J6 (Catalina),e,85.0183,68.3775,125.6140,59.61749,0.0021411,0.95949843,2.2065,02/04.0/2016,2000,g 14.5,4.0
# From MPC 84319
C/2013 K1 (Christensen),e,42.3556,125.8834,171.3056,76.80753,0.0014642,0.98766807,0.0000,05/29.9843/2013,2000,g 18.0,4.0
# From MPC 87916
C/2013 L2 (Catalina),e,106.7768,285.8488,1.8135,5011,0.0000028,0.99902866,0.0000,05/10.0020/2012,2000,g  8.0,4.0
# From MPC 86229
P/2013 N3 (PANSTARRS),e,2.1707,17.6744,323.8978,7.410373,0.0488589,0.59136117,35.3036,02/04.0/2016,2000,g 13.0,4.0
# From MPC 88328
C/2013 N4 (Borisov),e,37.0348,322.5911,142.3651,48.01193,0.0029626,0.97472662,0.0000,08/21.2914/2013,2000,g 12.0,4.0
# From MPC 85834
P/2013 N5 (PANSTARRS),e,23.3413,187.2369,176.9769,6.821316,0.0553225,0.73087605,52.4333,02/04.0/2016,2000,g 17.0,4.0
# From MPC 87479
P/2013 O2 (PANSTARRS),e,13.3309,207.5569,213.5523,3.819557,0.1320337,0.43984078,102.9984,02/04.0/2016,2000,g 14.0,4.0
# From MPC 90767
C/2013 O3 (McNaught),e,102.8299,276.7288,337.8970,705.0132,0.0000527,0.99549199,0.0000,09/09.6711/2013,2000,g 11.5,4.0
# From MPC 85834
P/2013 P1 (PANSTARRS),e,18.7073,160.8054,137.9417,8.565473,0.0393167,0.60475709,42.2063,02/04.0/2016,2000,g 12.0,4.0
# From MPC 93584
C/2013 P2 (PANSTARRS),e,125.6109,2.0592,104.9877,1074,0.0000280,0.99735955,0.0000,02/16.5974/2014,2000,g 11.5,4.0
# From MPC 97495
C/2013 P3 (Palomar),h,11/23.0530/2014,93.9215,177.2769,177.1408,1.001141,8.645776,2000,5.5,4.0
# From MPC 96865
C/2013 P4 (PANSTARRS),e,4.2664,256.5889,113.5306,14.71988,0.0174521,0.59467492,9.4474,02/04.0/2016,2000,g  7.5,4.0
# From MPC 88696
C/2013 PE67 (Catalina-Spacewatch),e,116.6687,325.9490,59.9262,52.69581,0.0025766,0.96447497,2.0327,02/04.0/2016,2000,g 14.0,4.0
# From MPC 94279
C/2013 R1 (Lovejoy),e,63.9848,70.6836,67.1889,536.7781,0.0000793,0.99848728,0.0000,12/22.7539/2013,2000,g  7.0,4.0
# From MPC 94671
P/2013 R3 (Catalina-PANSTARRS),e,0.8874,342.8207,9.1738,3.044225,0.1855620,0.27284797,168.5749,02/04.0/2016,2000,g 14.0,4.0
# From unp
P/2013 R3-A (Catalina-PANSTARRS),e,0.8867,342.7883,9.2128,3.044083,0.1855749,0.27281422,168.5827,02/04.0/2016,2000,g  9.0,4.0
# From MPEC 2015-M77
P/2013 R3-B (Catalina-PANSTARRS),e,0.8880,342.8427,9.1480,3.044301,0.1855550,0.27286479,168.5709,02/04.0/2016,2000,g  9.0,4.0
# From MPC 86230
C/2013 S1 (Catalina),e,83.9620,221.5693,166.0459,7338,0.0000016,0.99961516,0.0000,08/02.7498/2013,2000,g 13.0,4.0
# From MPC 85835
P/2013 T1 (PANSTARRS),e,24.2149,10.1561,346.1530,5.875839,0.0691989,0.62236744,63.5427,02/04.0/2016,2000,g 16.5,4.0
# From MPC 86643
P/2013 T2 (Schwartz),e,9.6015,1.1150,345.5323,3.447418,0.1539796,0.51885271,147.9437,02/04.0/2016,2000,g 16.0,4.0
# From MPC 94671
C/2013 TW5 (Spacewatch),e,31.4068,319.7000,190.4680,315.3251,0.0001760,0.98150375,0.0000,08/18.2548/2014,2000,g  7.5,4.0
# From MPC 88696
P/2013 TL117 (Lemmon),e,9.3645,3.3295,112.2687,3.605566,0.1439607,0.68966249,103.0535,02/04.0/2016,2000,g 17.5,4.0
# From MPC 86643
C/2013 U1 (Catalina),e,23.9403,211.2372,143.1746,11.91474,0.0239650,0.79685571,19.3518,02/04.0/2016,2000,g 13.5,4.0
# From MPC 95209
C/2013 U2 (Holvorcem),e,43.1674,6.9165,107.6112,1244,0.0000225,0.99588260,0.0000,10/27.2750/2014,2000,g  7.5,4.0
# From MPC 94279
